ONEWEB-0095             
1 45436U 20020N   25256.24211747 -.00000065  00000+0 -21978-3 0  9996
2 45436  87.8772  76.2429 0002369 100.4071 259.7325 13.11419719266370
ONEWEB-0092             
1 45437U 20020P   25256.21399427 -.00000368  00000+0 -10738-2 0  9993
2 45437  87.8777  76.2403 0001924  92.0595 268.0753 13.11414866266489
ONEWEB-0085             
1 45438U 20020Q   25256.25047170  .00000367  00000+0  99876-3 0  9991
2 45438  87.8771  76.2468 0001726  89.5208 270.6118 13.11418108266372
ONEWEB-0096             
1 45439U 20020R   25256.25215725  .00001403  00000+0  39236-2 0  9990
2 45439  87.8793  76.2156 0001660  82.1986 277.9330 13.11414502266369
ONEWEB-0037             
1 45440U 20020S   25255.92746215 -.00000313  00000+0 -92011-3 0  9990
2 45440  87.8797  76.2462 0001775  90.0155 270.1176 13.11418007266354
ONEWEB-0042             
1 45441U 20020T   25256.24182535  .00000004  00000+0 -24744-4 0  9991
2 45441  87.8782  76.2234 0001820  87.0954 273.0382 13.11419522266365
ONEWEB-0098             
1 45442U 20020U   25256.23773308 -.00000151  00000+0 -46057-3 0  9999
2 45442  87.8783  76.2349 0001631  90.8279 269.3036 13.11418304266345
ONEWEB-0055             
1 45443U 20020V   25256.22077336 -.00000506  00000+0 -14636-2 0  9998
2 45443  87.8779  76.2395 0001616  90.6678 269.4636 13.11417615266314
ONEWEB-0093             
1 45444U 20020W   25256.19633859  .00000306  00000+0  82788-3 0  9993
2 45444  87.8782  76.2295 0001918  76.9600 283.1742 13.11414539266374
ONEWEB-0029             
1 45445U 20020X   25256.21230129 -.00000317  00000+0 -93135-3 0  9992
2 45445  87.8777  76.2391 0001664  84.8034 275.3284 13.11416698266353
ONEWEB-0068             
1 45446U 20020Y   25255.73827417  .00000060  00000+0  13351-3 0  9996
2 45446  87.8772  76.3223 0001679  83.3169 276.8150 13.11415485266231
ONEWEB-0046             
1 45447U 20020Z   25256.26402555  .00002183  00000+0  61222-2 0  9995
2 45447  87.8775  76.2269 0001914  86.4045 273.7302 13.11408853266318
ONEWEB-0063             
1 45448U 20020AA  25256.21653266 -.00000469  00000+0 -13605-2 0  9997
2 45448  87.8777  76.2347 0001893  91.2635 268.8710 13.11416932266396
ONEWEB-0019             
1 45449U 20020AB  25256.26656724  .00000675  00000+0  18673-2 0  9992
2 45449  87.8775  76.2408 0001615  88.9951 271.1362 13.11417013266244
ONEWEB-0094             
1 45450U 20020AC  25255.20061829 -.00000052  00000+0 -16779-3 0  9990
2 45450  87.9044  61.1284 0001768  90.3211 269.8123 13.17648069269702
ONEWEB-0087             
1 45451U 20020AD  25256.22656294 -.00000477  00000+0 -13809-2 0  9991
2 45451  87.8787  76.1823 0001716  80.0514 280.0808 13.11417582266289
