[{"OBJECT_NAME":"ONEWEB-0095","OBJECT_ID":"2020-020N","EPOCH":"2025-09-13T05:48:38.949408","MEAN_MOTION":13.11419719,"ECCENTRICITY":0.0002369,"INCLINATION":87.8772,"RA_OF_ASC_NODE":76.2429,"ARG_OF_PERICENTER":100.4071,"MEAN_ANOMALY":259.7325,"EPHEMERIS_TYPE":0,"CLASSIFICATION_TYPE":"U","NORAD_CAT_ID":45436,"ELEMENT_SET_NO":999,"REV_AT_EPOCH":26637,"BSTAR":-0.00021977746,"MEAN_MOTION_DOT":-6.5e-7,"MEAN_MOTION_DDOT":0},{"OBJECT_NAME":"ONEWEB-0092","OBJECT_ID":"2020-020P","EPOCH":"2025-09-13T05:08:09.104928","MEAN_MOTION":13.11414866,"ECCENTRICITY":0.00019247,"INCLINATION":87.8777,"RA_OF_ASC_NODE":76.2403,"ARG_OF_PERICENTER":92.0595,"MEAN_ANOMALY":268.0753,"EPHEMERIS_TYPE":0,"CLASSIFICATION_TYPE":"U","NORAD_CAT_ID":45437,"ELEMENT_SET_NO":999,"REV_AT_EPOCH":26648,"BSTAR":-0.0010738439,"MEAN_MOTION_DOT":-3.68e-6,"MEAN_MOTION_DDOT":0},{"OBJECT_NAME":"ONEWEB-0085","OBJECT_ID":"2020-020Q","EPOCH":"2025-09-13T06:00:40.754880","MEAN_MOTION":13.11418108,"ECCENTRICITY":0.00017267,"INCLINATION":87.8771,"RA_OF_ASC_NODE":76.2468,"ARG_OF_PERICENTER":89.5208,"MEAN_ANOMALY":270.6118,"EPHEMERIS_TYPE":0,"CLASSIFICATION_TYPE":"U","NORAD_CAT_ID":45438,"ELEMENT_SET_NO":999,"REV_AT_EPOCH":26637,"BSTAR":0.00099876105,"MEAN_MOTION_DOT":3.67e-6,"MEAN_MOTION_DDOT":0},{"OBJECT_NAME":"ONEWEB-0096","OBJECT_ID":"2020-020R","EPOCH":"2025-09-13T06:03:06.386400","MEAN_MOTION":13.11414502,"ECCENTRICITY":0.000166,"INCLINATION":87.8793,"RA_OF_ASC_NODE":76.2156,"ARG_OF_PERICENTER":82.1986,"MEAN_ANOMALY":277.933,"EPHEMERIS_TYPE":0,"CLASSIFICATION_TYPE":"U","NORAD_CAT_ID":45439,"ELEMENT_SET_NO":999,"REV_AT_EPOCH":26636,"BSTAR":0.0039236446,"MEAN_MOTION_DOT":1.403e-5,"MEAN_MOTION_DDOT":0},{"OBJECT_NAME":"ONEWEB-0037","OBJECT_ID":"2020-020S","EPOCH":"2025-09-12T22:15:32.729760","MEAN_MOTION":13.11418007,"ECCENTRICITY":0.00017753,"INCLINATION":87.8797,"RA_OF_ASC_NODE":76.2462,"ARG_OF_PERICENTER":90.0155,"MEAN_ANOMALY":270.1176,"EPHEMERIS_TYPE":0,"CLASSIFICATION_TYPE":"U","NORAD_CAT_ID":45440,"ELEMENT_SET_NO":999,"REV_AT_EPOCH":26635,"BSTAR":-0.0009201086,"MEAN_MOTION_DOT":-3.13e-6,"MEAN_MOTION_DDOT":0},{"OBJECT_NAME":"ONEWEB-0042","OBJECT_ID":"2020-020T","EPOCH":"2025-09-13T05:48:13.710240","MEAN_MOTION":13.11419522,"ECCENTRICITY":0.00018206,"INCLINATION":87.8782,"RA_OF_ASC_NODE":76.2234,"ARG_OF_PERICENTER":87.0954,"MEAN_ANOMALY":273.0382,"EPHEMERIS_TYPE":0,"CLASSIFICATION_TYPE":"U","NORAD_CAT_ID":45441,"ELEMENT_SET_NO":999,"REV_AT_EPOCH":26636,"BSTAR":-2.4744479e-5,"MEAN_MOTION_DOT":4.0e-8,"MEAN_MOTION_DDOT":0},{"OBJECT_NAME":"ONEWEB-0098","OBJECT_ID":"2020-020U","EPOCH":"2025-09-13T05:42:20.138112","MEAN_MOTION":13.11418304,"ECCENTRICITY":0.00016314,"INCLINATION":87.8783,"RA_OF_ASC_NODE":76.2349,"ARG_OF_PERICENTER":90.8279,"MEAN_ANOMALY":269.3036,"EPHEMERIS_TYPE":0,"CLASSIFICATION_TYPE":"U","NORAD_CAT_ID":45442,"ELEMENT_SET_NO":999,"REV_AT_EPOCH":26634,"BSTAR":-0.00046057465,"MEAN_MOTION_DOT":-1.51e-6,"MEAN_MOTION_DDOT":0},{"OBJECT_NAME":"ONEWEB-0055","OBJECT_ID":"2020-020V","EPOCH":"2025-09-13T05:17:54.818304","MEAN_MOTION":13.11417615,"ECCENTRICITY":0.00016167,"INCLINATION":87.8779,"RA_OF_ASC_NODE":76.2395,"ARG_OF_PERICENTER":90.6678,"MEAN_ANOMALY":269.4636,"EPHEMERIS_TYPE":0,"CLASSIFICATION_TYPE":"U","NORAD_CAT_ID":45443,"ELEMENT_SET_NO":999,"REV_AT_EPOCH":26631,"BSTAR":-0.0014636476,"MEAN_MOTION_DOT":-5.06e-6,"MEAN_MOTION_DDOT":0},{"OBJECT_NAME":"ONEWEB-0093","OBJECT_ID":"2020-020W","EPOCH":"2025-09-13T04:42:43.654176","MEAN_MOTION":13.11414539,"ECCENTRICITY":0.00019184,"INCLINATION":87.8782,"RA_OF_ASC_NODE":76.2295,"ARG_OF_PERICENTER":76.96,"MEAN_ANOMALY":283.1742,"EPHEMERIS_TYPE":0,"CLASSIFICATION_TYPE":"U","NORAD_CAT_ID":45444,"ELEMENT_SET_NO":999,"REV_AT_EPOCH":26637,"BSTAR":0.00082788439,"MEAN_MOTION_DOT":3.06e-6,"MEAN_MOTION_DDOT":0},{"OBJECT_NAME":"ONEWEB-0029","OBJECT_ID":"2020-020X","EPOCH":"2025-09-13T05:05:42.831456","MEAN_MOTION":13.11416698,"ECCENTRICITY":0.00016643,"INCLINATION":87.8777,"RA_OF_ASC_NODE":76.2391,"ARG_OF_PERICENTER":84.8034,"MEAN_ANOMALY":275.3284,"EPHEMERIS_TYPE":0,"CLASSIFICATION_TYPE":"U","NORAD_CAT_ID":45445,"ELEMENT_SET_NO":999,"REV_AT_EPOCH":26635,"BSTAR":-0.00093135444,"MEAN_MOTION_DOT":-3.17e-6,"MEAN_MOTION_DDOT":0},{"OBJECT_NAME":"ONEWEB-0068","OBJECT_ID":"2020-020Y","EPOCH":"2025-09-12T17:43:06.888288","MEAN_MOTION":13.11415485,"ECCENTRICITY":0.00016795,"INCLINATION":87.8772,"RA_OF_ASC_NODE":76.3223,"ARG_OF_PERICENTER":83.3169,"MEAN_ANOMALY":276.815,"EPHEMERIS_TYPE":0,"CLASSIFICATION_TYPE":"U","NORAD_CAT_ID":45446,"ELEMENT_SET_NO":999,"REV_AT_EPOCH":26623,"BSTAR":0.00013351322,"MEAN_MOTION_DOT":6.0e-7,"MEAN_MOTION_DDOT":0},{"OBJECT_NAME":"ONEWEB-0046","OBJECT_ID":"2020-020Z","EPOCH":"2025-09-13T06:20:11.807520","MEAN_MOTION":13.11408853,"ECCENTRICITY":0.00019147,"INCLINATION":87.8775,"RA_OF_ASC_NODE":76.2269,"ARG_OF_PERICENTER":86.4045,"MEAN_ANOMALY":273.7302,"EPHEMERIS_TYPE":0,"CLASSIFICATION_TYPE":"U","NORAD_CAT_ID":45447,"ELEMENT_SET_NO":999,"REV_AT_EPOCH":26631,"BSTAR":0.0061222462,"MEAN_MOTION_DOT":2.183e-5,"MEAN_MOTION_DDOT":0},{"OBJECT_NAME":"ONEWEB-0063","OBJECT_ID":"2020-020AA","EPOCH":"2025-09-13T05:11:48.421824","MEAN_MOTION":13.11416932,"ECCENTRICITY":0.00018935,"INCLINATION":87.8777,"RA_OF_ASC_NODE":76.2347,"ARG_OF_PERICENTER":91.2635,"MEAN_ANOMALY":268.871,"EPHEMERIS_TYPE":0,"CLASSIFICATION_TYPE":"U","NORAD_CAT_ID":45448,"ELEMENT_SET_NO":999,"REV_AT_EPOCH":26639,"BSTAR":-0.0013604755,"MEAN_MOTION_DOT":-4.69e-6,"MEAN_MOTION_DDOT":0},{"OBJECT_NAME":"ONEWEB-0019","OBJECT_ID":"2020-020AB","EPOCH":"2025-09-13T06:23:51.409536","MEAN_MOTION":13.11417013,"ECCENTRICITY":0.00016152,"INCLINATION":87.8775,"RA_OF_ASC_NODE":76.2408,"ARG_OF_PERICENTER":88.9951,"MEAN_ANOMALY":271.1362,"EPHEMERIS_TYPE":0,"CLASSIFICATION_TYPE":"U","NORAD_CAT_ID":45449,"ELEMENT_SET_NO":999,"REV_AT_EPOCH":26624,"BSTAR":0.0018673321,"MEAN_MOTION_DOT":6.75e-6,"MEAN_MOTION_DDOT":0},{"OBJECT_NAME":"ONEWEB-0094","OBJECT_ID":"2020-020AC","EPOCH":"2025-09-12T04:48:53.420256","MEAN_MOTION":13.17648069,"ECCENTRICITY":0.00017686,"INCLINATION":87.9044,"RA_OF_ASC_NODE":61.1284,"ARG_OF_PERICENTER":90.3211,"MEAN_ANOMALY":269.8123,"EPHEMERIS_TYPE":0,"CLASSIFICATION_TYPE":"U","NORAD_CAT_ID":45450,"ELEMENT_SET_NO":999,"REV_AT_EPOCH":26970,"BSTAR":-0.0001677872,"MEAN_MOTION_DOT":-5.2e-7,"MEAN_MOTION_DDOT":0},{"OBJECT_NAME":"ONEWEB-0087","OBJECT_ID":"2020-020AD","EPOCH":"2025-09-13T05:26:15.038016","MEAN_MOTION":13.11417582,"ECCENTRICITY":0.00017167,"INCLINATION":87.8787,"RA_OF_ASC_NODE":76.1823,"ARG_OF_PERICENTER":80.0514,"MEAN_ANOMALY":280.0808,"EPHEMERIS_TYPE":0,"CLASSIFICATION_TYPE":"U","NORAD_CAT_ID":45451,"ELEMENT_SET_NO":999,"REV_AT_EPOCH":26628,"BSTAR":-0.0013809243,"MEAN_MOTION_DOT":-4.77e-6,"MEAN_MOTION_DDOT":0}]
